{
  "type": "FeatureCollection",
  "features": [
    {
      "type": "Feature",
      "properties": {
        "norad_id": 66493,
        "name": "STARLINK-35597",
        "group": "last-30-days",
        "lat": -21.982584800516133,
        "lon": 151.24180240323219,
        "alt_km": 361.90969719419354,
        "timestamp": "2025-12-03T22:42:31.475903+00:00",
        "meta_object_name": "STARLINK-35597",
        "meta_object_id": "2025-263J",
        "meta_epoch": "2025-12-03T12:00:02.998944",
        "meta_mean_motion": 15.71355022,
        "meta_eccentricity": 0.0001766,
        "meta_inclination": 42.9991,
        "meta_ra_of_asc_node": 179.6024,
        "meta_arg_of_pericenter": 259.4102,
        "meta_mean_anomaly": 61.8987,
        "meta_ephemeris_type": 0,
        "meta_classification_type": "U",
        "meta_norad_cat_id": 66493,
        "meta_element_set_no": 999,
        "meta_rev_at_epoch": 415,
        "meta_bstar": -0.016668,
        "meta_mean_motion_dot": -0.01936684,
        "meta_mean_motion_ddot": 0,
        "tle_line1": "1 66493U 25263J   25337.50003471 -.01936684  00000+0 -16668-1 0  9992",
        "tle_line2": "2 66493  42.9991 179.6024 0001766 259.4102  61.8987 15.71355022  4156"
      },
      "geometry": {
        "type": "Point",
        "coordinates": [
          151.24180240323219,
          -21.982584800516133
        ]
      }
    },
    {
      "type": "Feature",
      "properties": {
        "norad_id": 66494,
        "name": "STARLINK-35689",
        "group": "last-30-days",
        "lat": -25.435526213558038,
        "lon": 146.23730649201613,
        "alt_km": 362.02846036381015,
        "timestamp": "2025-12-03T22:42:31.475912+00:00",
        "meta_object_name": "STARLINK-35689",
        "meta_object_id": "2025-263K",
        "meta_epoch": "2025-12-03T12:00:02.998944",
        "meta_mean_motion": 15.71354644,
        "meta_eccentricity": 0.0001854,
        "meta_inclination": 42.9985,
        "meta_ra_of_asc_node": 179.6174,
        "meta_arg_of_pericenter": 258.9438,
        "meta_mean_anomaly": 56.6137,
        "meta_ephemeris_type": 0,
        "meta_classification_type": "U",
        "meta_norad_cat_id": 66494,
        "meta_element_set_no": 999,
        "meta_rev_at_epoch": 415,
        "meta_bstar": -0.016671,
        "meta_mean_motion_dot": -0.01936973,
        "meta_mean_motion_ddot": 0,
        "tle_line1": "1 66494U 25263K   25337.50003471 -.01936973  00000+0 -16671-1 0  9998",
        "tle_line2": "2 66494  42.9985 179.6174 0001854 258.9438  56.6137 15.71354644  4158"
      },
      "geometry": {
        "type": "Point",
        "coordinates": [
          146.23730649201613,
          -25.435526213558038
        ]
      }
    },
    {
      "type": "Feature",
      "properties": {
        "norad_id": 66495,
        "name": "STARLINK-35832",
        "group": "last-30-days",
        "lat": -20.797270656651445,
        "lon": 152.8539670020142,
        "alt_km": 361.86514012354746,
        "timestamp": "2025-12-03T22:42:31.475921+00:00",
        "meta_object_name": "STARLINK-35832",
        "meta_object_id": "2025-263L",
        "meta_epoch": "2025-12-03T12:00:02.998944",
        "meta_mean_motion": 15.71355693,
        "meta_eccentricity": 0.0001776,
        "meta_inclination": 42.9988,
        "meta_ra_of_asc_node": 179.5976,
        "meta_arg_of_pericenter": 259.3068,
        "meta_mean_anomaly": 63.9212,
        "meta_ephemeris_type": 0,
        "meta_classification_type": "U",
        "meta_norad_cat_id": 66495,
        "meta_element_set_no": 999,
        "meta_rev_at_epoch": 415,
        "meta_bstar": -0.016702,
        "meta_mean_motion_dot": -0.0194025,
        "meta_mean_motion_ddot": 0,
        "tle_line1": "1 66495U 25263L   25337.50003471 -.01940250  00000+0 -16702-1 0  9997",
        "tle_line2": "2 66495  42.9988 179.5976 0001776 259.3068  63.9212 15.71355693  4158"
      },
      "geometry": {
        "type": "Point",
        "coordinates": [
          152.8539670020142,
          -20.797270656651445
        ]
      }
    },
    {
      "type": "Feature",
      "properties": {
        "norad_id": 66496,
        "name": "STARLINK-35909",
        "group": "last-30-days",
        "lat": -19.59706414975218,
        "lon": 154.44100582260128,
        "alt_km": 361.7545097214943,
        "timestamp": "2025-12-03T22:42:31.475931+00:00",
        "meta_object_name": "STARLINK-35909",
        "meta_object_id": "2025-263M",
        "meta_epoch": "2025-12-03T12:00:02.998944",
        "meta_mean_motion": 15.7136228,
        "meta_eccentricity": 0.0001872,
        "meta_inclination": 42.9989,
        "meta_ra_of_asc_node": 179.5927,
        "meta_arg_of_pericenter": 260.5413,
        "meta_mean_anomaly": 64.6002,
        "meta_ephemeris_type": 0,
        "meta_classification_type": "U",
        "meta_norad_cat_id": 66496,
        "meta_element_set_no": 999,
        "meta_rev_at_epoch": 415,
        "meta_bstar": -0.016781,
        "meta_mean_motion_dot": -0.01948946,
        "meta_mean_motion_ddot": 0,
        "tle_line1": "1 66496U 25263M   25337.50003471 -.01948946  00000+0 -16781-1 0  9995",
        "tle_line2": "2 66496  42.9989 179.5927 0001872 260.5413  64.6002 15.71362280  4156"
      },
      "geometry": {
        "type": "Point",
        "coordinates": [
          154.44100582260128,
          -19.59706414975218
        ]
      }
    },
    {
      "type": "Feature",
      "properties": {
        "norad_id": 66497,
        "name": "STARLINK-35899",
        "group": "last-30-days",
        "lat": -18.383536640662044,
        "lon": 156.00337339845794,
        "alt_km": 361.646507471969,
        "timestamp": "2025-12-03T22:42:31.475940+00:00",
        "meta_object_name": "STARLINK-35899",
        "meta_object_id": "2025-263N",
        "meta_epoch": "2025-12-03T12:00:02.998944",
        "meta_mean_motion": 15.71356849,
        "meta_eccentricity": 0.000179,
        "meta_inclination": 42.999,
        "meta_ra_of_asc_node": 179.5874,
        "meta_arg_of_pericenter": 262.8423,
        "meta_mean_anomaly": 64.2197,
        "meta_ephemeris_type": 0,
        "meta_classification_type": "U",
        "meta_norad_cat_id": 66497,
        "meta_element_set_no": 999,
        "meta_rev_at_epoch": 415,
        "meta_bstar": -0.016715,
        "meta_mean_motion_dot": -0.01941676,
        "meta_mean_motion_ddot": 0,
        "tle_line1": "1 66497U 25263N   25337.50003471 -.01941676  00000+0 -16715-1 0  9996",
        "tle_line2": "2 66497  42.9990 179.5874 0001790 262.8423  64.2197 15.71356849  4150"
      },
      "geometry": {
        "type": "Point",
        "coordinates": [
          156.00337339845794,
          -18.383536640662044
        ]
      }
    },
    {
      "type": "Feature",
      "properties": {
        "norad_id": 66498,
        "name": "STARLINK-35907",
        "group": "last-30-days",
        "lat": -17.157179779050438,
        "lon": 157.5450875846325,
        "alt_km": 361.6929405679548,
        "timestamp": "2025-12-03T22:42:31.475949+00:00",
        "meta_object_name": "STARLINK-35907",
        "meta_object_id": "2025-263P",
        "meta_epoch": "2025-12-03T12:00:02.998944",
        "meta_mean_motion": 15.71359734,
        "meta_eccentricity": 0.0001873,
        "meta_inclination": 42.9992,
        "meta_ra_of_asc_node": 179.5832,
        "meta_arg_of_pericenter": 258.5148,
        "meta_mean_anomaly": 70.4622,
        "meta_ephemeris_type": 0,
        "meta_classification_type": "U",
        "meta_norad_cat_id": 66498,
        "meta_element_set_no": 999,
        "meta_rev_at_epoch": 415,
        "meta_bstar": -0.016762,
        "meta_mean_motion_dot": -0.01946738,
        "meta_mean_motion_ddot": 0,
        "tle_line1": "1 66498U 25263P   25337.50003471 -.01946738  00000+0 -16762-1 0  9993",
        "tle_line2": "2 66498  42.9992 179.5832 0001873 258.5148  70.4622 15.71359734  4153"
      },
      "geometry": {
        "type": "Point",
        "coordinates": [
          157.5450875846325,
          -17.157179779050438
        ]
      }
    },
    {
      "type": "Feature",
      "properties": {
        "norad_id": 66499,
        "name": "STARLINK-35816",
        "group": "last-30-days",
        "lat": -14.669553051955514,
        "lon": 160.56806098894089,
        "alt_km": 361.4679295368351,
        "timestamp": "2025-12-03T22:42:31.475958+00:00",
        "meta_object_name": "STARLINK-35816",
        "meta_object_id": "2025-263Q",
        "meta_epoch": "2025-12-03T12:00:02.998944",
        "meta_mean_motion": 15.71360248,
        "meta_eccentricity": 0.0001864,
        "meta_inclination": 42.9985,
        "meta_ra_of_asc_node": 179.5733,
        "meta_arg_of_pericenter": 261.5467,
        "meta_mean_anomaly": 71.2655,
        "meta_ephemeris_type": 0,
        "meta_classification_type": "U",
        "meta_norad_cat_id": 66499,
        "meta_element_set_no": 999,
        "meta_rev_at_epoch": 415,
        "meta_bstar": -0.016771,
        "meta_mean_motion_dot": -0.01947711,
        "meta_mean_motion_ddot": 0,
        "tle_line1": "1 66499U 25263Q   25337.50003471 -.01947711  00000+0 -16771-1 0  9996",
        "tle_line2": "2 66499  42.9985 179.5733 0001864 261.5467  71.2655 15.71360248  4151"
      },
      "geometry": {
        "type": "Point",
        "coordinates": [
          160.56806098894089,
          -14.669553051955514
        ]
      }
    }
  ]
}